satname,norad_id,inclination_deg,eccentricity,mean_motion_rev_per_day,perigee_km,apogee_km,l1,l2
STARLINK-1296,45412,53.1591,0.000278,15.33238728,464.2542499074789,468.05967735125705,1 45412U 20019BE  26099.95552007  .00046611  00000+0  14336-2 0  9993,2 45412  53.1591 343.7527 0002780 182.3260 177.7730 15.33238728334769
STARLINK-1309,45414,53.0666,0.0006321,15.61355308,379.46704233291894,388.01540878567175,1 45414U 20019BG  26099.87072614  .00089642  00000+0  10275-2 0  9996,2 45414  53.0666 332.2666 0006321 158.9516 201.1759 15.61355308334890
STARLINK-1316,45415,53.1604,0.0002216,15.33289641,464.48879061975913,467.5221145547457,1 45415U 20019BH  26099.87013459  .00047180  00000+0  14486-2 0  9998,2 45415  53.1604 344.2008 0002216 203.8321 156.2579 15.33289641334772
STARLINK-1286,45417,53.0496,0.0003779,15.53556033,403.78945512309565,408.9171729024256,1 45417U 20019BK  26099.96469234  .00032358  00000+0  50493-3 0  9996,2 45417  53.0496 340.1644 0003779 147.8479 212.2762 15.53556033335085
STARLINK-1308,45419,53.0516,0.0006248,15.56825141,392.61934026877043,401.0853669650505,1 45419U 20019BM  26099.88368984  .00085021  00000+0  11579-2 0  9995,2 45419  53.0516   1.6365 0006248 152.3750 207.7594 15.56825141334528
STARLINK-1329,45531,53.0457,7.59e-05,15.66658045,367.96238444126993,368.98652005972144,1 45531U 20025A   26099.86036953  .00052566  00000+0  49371-3 0  9993,2 45531  53.0457 288.9929 0000759 301.9536  58.1405 15.66658045330329
STARLINK-1338,45532,53.0481,0.0002062,15.60595934,384.53981483600546,387.32931794998694,1 45532U 20025B   26099.88862790  .00096860  00000+0  11424-2 0  9994,2 45532  53.0481 293.3267 0002062 143.8190 216.2962 15.60595934330269
STARLINK-1350,45535,53.0719,0.000135,15.36962096,454.17624464090295,456.0212182883988,1 45535U 20025E   26099.68700684  .00012000  00000+0  33718-3 0  9993,2 45535  53.0719 247.4769 0001350 119.6566 240.4571 15.36962096330928
STARLINK-1362,45538,53.1614,8.12e-05,15.31488241,470.8151304446392,471.9274905942675,1 45538U 20025H   26099.01856842 -.00146753  00000+0 -48426-2 0  9997,2 45538  53.1614 320.0319 0000812  90.9686 269.1408 15.31488241329825
STARLINK-1368,45540,53.1593,0.0001173,15.32426902,467.7708755690055,469.3771139683786,1 45540U 20025K   26100.00002315  .00073482  00000+0  23036-2 0  9996,2 45540  53.1593 315.8380 0001173  84.4887 213.7236 15.32426902  5817
STARLINK-1371,45542,53.0491,0.0001763,15.5264368,407.814247655524,410.20739597749616,1 45542U 20025M   26099.83255164  .00082956  00000+0  13178-2 0  9990,2 45542  53.0491 300.0513 0001763 228.5088 131.5770 15.52643680330163
STARLINK-1372,45543,53.161,0.0001306,15.32687526,466.90373321345305,468.6918913864265,1 45543U 20025N   26100.00002315  .00104334  00000+0  32260-2 0  9999,2 45543  53.1610 315.5312 0001306  79.9021 348.2145 15.32687526  5879
STARLINK-1373,45544,53.0484,0.0002493,15.56797784,395.2426982480638,398.62074751329146,1 45544U 20025P   26099.83281684  .00071250  00000+0  97469-3 0  9999,2 45544  53.0484 298.7235 0002493 160.8085 199.3020 15.56797784330188
STARLINK-1327,45555,53.0446,0.0004625,15.59362244,386.3716616787797,392.6317274712628,1 45555U 20025AA  26099.85122145  .00055019  00000+0  68622-3 0  9993,2 45555  53.0446 275.5389 0004625 190.4201 169.6716 15.59362244330509
STARLINK-1356,45564,53.0499,0.0003295,15.50045264,414.3549236171584,418.83265120606393,1 45564U 20025AK  26099.80006872  .00088218  00000+0  15357-2 0  9999,2 45564  53.0499 285.1853 0003295 176.1685 183.9348 15.50045264330364
STARLINK-1357,45565,53.0468,0.0005157,15.62780943,376.1433059392857,383.1132650547479,1 45565U 20025AL  26100.00002315  .00076138  00000+0  82828-3 0  9999,2 45565  53.0468 245.7457 0005157 282.5736  78.8085 15.62780943  5958
STARLINK-1361,45567,53.0482,0.0004343,15.53130124,404.64653795359663,410.5406235360315,1 45567U 20025AN  26099.89045616  .00066820  00000+0  10463-2 0  9998,2 45567  53.0482 284.1130 0004343 141.6091 218.5228 15.53130124330397
STARLINK-1363,45568,53.0389,0.0001318,15.85934443,312.81288103326733,314.57684791274187,1 45568U 20025AP  26100.00002315  .00131618  00000+0  51991-3 0  9994,2 45568  53.0389 240.3651 0001318 227.3066 188.5486 15.85934443  6011
STARLINK-1366,45569,53.0371,0.0001638,15.84179986,317.5377613820365,319.73162378852703,1 45569U 20025AQ  26100.00002315  .00092794  00000+0  40146-3 0  9996,2 45569  53.0371 241.4340 0001638 194.9672 353.3841 15.84179986  5969
STARLINK-1376,45570,53.1602,0.0001338,15.33240806,465.2350138790862,467.0665452889025,1 45570U 20025AR  26099.84911108  .00038591  00000+0  11902-2 0  9998,2 45570  53.1602 292.7990 0001338 258.7500 101.3352 15.33240806330272
STARLINK-1320,45572,53.0462,0.0003413,15.74403375,344.0344228630411,348.6245436845238,1 45572U 20025AT  26099.52770808  .00080405  00000+0  54284-3 0  9997,2 45572  53.0462 192.9618 0003413 107.5501 252.5890 15.74403375331659
STARLINK-1321,45573,53.0471,0.0003768,15.54247607,401.7849876428518,406.8962627812107,1 45573U 20025AU  26099.87881484  .00050665  00000+0  76518-3 0  9998,2 45573  53.0471 268.5650 0003768 229.9200 130.1480 15.54247607330303
STARLINK-1331,45578,53.0508,0.0004707,15.53977024,401.93504272125665,408.3208083221425,1 45578U 20025AZ  26099.88899294  .00086421  00000+0  13069-2 0  9992,2 45578  53.0508 275.2376 0004707 227.3260 132.7353 15.53977024330524
STARLINK-1333,45580,53.1604,0.0001398,15.30364563,473.76572806088006,475.68178792881463,1 45580U 20025BB  26099.84838999  .00036852  00000+0  12439-2 0  9999,2 45580  53.1604 293.0804 0001398  72.0327 288.0826 15.30364563330276
STARLINK-1335,45581,53.1559,9.29e-05,15.31849682,469.6576180806478,470.9300565302192,1 45581U 20025BC  26100.00002315  .00077499  00000+0  24718-2 0  9991,2 45581  53.1559 289.7606 0000929  72.8184 270.7029 15.31849682  5819
STARLINK-1337,45582,53.0507,0.0004773,15.64637678,371.05806419090186,377.50392240730616,1 45582U 20025BD  26099.92723568  .00058004  00000+0  58929-3 0  9993,2 45582  53.0507 269.3645 0004773 238.3175 121.7374 15.64637678330599
STARLINK-1347,45586,53.0398,0.0002028,15.61130867,383.01786514337437,385.76074581287594,1 45586U 20025BH  26100.00002315  .00063778  00000+0  74203-3 0  9996,2 45586  53.0398 237.5541 0002028 280.1199  87.8369 15.61130867  5944
STARLINK-1364,45589,53.0481,0.0005288,15.55304789,397.68184132887745,404.851738777239,1 45589U 20025BL  26098.88487859  .00090445  00000+0  13019-2 0  9999,2 45589  53.0481 277.8215 0005288 188.2695 171.8229 15.55304789330382
STARLINK-1365,45590,53.0504,0.0003741,15.50579865,412.4906047921031,417.5732537849972,1 45590U 20025BM  26099.85637832  .00073749  00000+0  12633-2 0  9996,2 45590  53.0504 304.4883 0003741 179.9959 180.1049 15.50579865330118
STARLINK-1443,45660,53.1366,0.0001683,15.28125003,480.26318298836395,482.57210908221896,1 45660U 20035D   26099.87930785  .00043837  00000+0  15809-2 0  9993,2 45660  53.1366 280.7650 0001683 195.5543 164.5405 15.28125003323522
STARLINK-1446,45663,53.0236,0.0002932,15.44279957,431.49742762541155,435.491768394485,1 45663U 20035G   26099.50175407  .00016591  00000+0  36318-3 0  9994,2 45663  53.0236 212.8653 0002932  17.4190 342.6916 15.44279957324430
STARLINK-1448,45665,53.0462,0.0005328,15.59586562,385.247292857036,392.45819712930006,1 45665U 20035J   26100.00002315  .00104021  00000+0  12729-2 0  9996,2 45665  53.0462 261.2072 0005328 229.1610 120.0812 15.59586562  5895
STARLINK-1451,45668,53.0527,8.86e-05,15.11798691,530.1024821777401,531.3267306823991,1 45668U 20035M   26099.90311281  .00027823  00000+0  16218-2 0  9991,2 45668  53.0527 284.9599 0000886 112.9756 247.1329 15.11798691323466
STARLINK-1452,45669,53.0292,0.000219,15.49796228,415.83345712256505,418.80986801677045,1 45669U 20035N   26099.55240661  .00080799  00000+0  14211-2 0  9998,2 45669  53.0292 234.1434 0002190 175.3157 184.7871 15.49796228324148
STARLINK-1453,45670,53.0423,6.03e-05,15.60096259,386.9708145695704,387.7867357720552,1 45670U 20035P   26100.00002315  .00083714  00000+0  10089-2 0  9994,2 45670  53.0423 221.7115 0000603 352.4408  84.5179 15.60096259  5940
STARLINK-1454,45671,53.0465,0.0004685,15.57844775,390.723108675219,397.06850341448353,1 45671U 20035Q   26099.00003471  .00084045  00000+0  11024-2 0  9994,2 45671  53.0465 266.4957 0004685 200.1304 304.9620 15.57844775  5686
STARLINK-1456,45673,53.0465,0.0004149,15.55795483,397.02906061659996,402.65342696329753,1 45673U 20035S   26099.06787846  .00099557  00000+0  14054-2 0  9997,2 45673  53.0465 260.0006 0004149 287.1286  72.9270 15.55795483323744
STARLINK-1457,45674,53.0438,0.0002505,15.89802855,301.16153936369847,304.50870639726145,1 45674U 20035T   26100.00002315  .00161571  00000+0  52464-3 0  9990,2 45674  53.0438 224.4750 0002505 285.9306 240.7310 15.89802855  6026
STARLINK-1458,45675,53.0502,0.0004845,15.47710795,420.12920892891816,426.7199220858947,1 45675U 20035U   26098.75719484  .00090859  00000+0  17152-2 0  9995,2 45675  53.0502 272.3021 0004845 212.5071 147.5639 15.47710795323504
STARLINK-1460,45676,53.1606,0.0001222,15.30320494,474.01788399971156,475.6927553226369,1 45676U 20035V   26099.88476254  .00031175  00000+0  10563-2 0  9991,2 45676  53.1606 280.0462 0001222 129.0583 231.0527 15.30320494323490
STARLINK-1392,45677,53.1556,0.0001633,15.33120681,465.39055916962843,467.6260203212596,1 45677U 20035W   26100.00002315  .00090966  00000+0  27811-2 0  9999,2 45677  53.1556 279.4483 0001633  95.2140 154.1982 15.33120681  5811
STARLINK-1394,45679,53.0461,0.0005273,15.55907662,395.94159455800764,403.0893068325104,1 45679U 20035Y   26099.70712560  .00084306  00000+0  11882-2 0  9997,2 45679  53.0461 247.1267 0005273 291.7182  68.3267 15.55907662323970
STARLINK-1402,45685,53.0458,0.000566,15.50194874,412.31103519564476,420.0021755569305,1 45685U 20035AE  26099.65793117  .00083881  00000+0  14532-2 0  9997,2 45685  53.0458 235.3768 0005660 330.2624  29.8061 15.50194874324140
